{"type": "FeatureCollection", "features": [ {"type": "Feature", "properties": {"norad_id": 38552, "name": "METEOSAT-10 (MSG-3)", "group": "weather", "lat": -4.110559784841427, "lon": -12.816577085707042, "alt_km": 35782.298605890806, "timestamp": "2025-12-23T16:57:11.987959+00:00", "meta": {"OBJECT_NAME": "METEOSAT-10 (MSG-3)", "OBJECT_ID": "2012-035B", "EPOCH": "2025-12-23T01:08:58.915968", "MEAN_MOTION": 1.0027689, "ECCENTRICITY": 7.313e-05, "INCLINATION": 4.2513, "RA_OF_ASC_NODE": 61.6947, "ARG_OF_PERICENTER": 264.0711, "MEAN_ANOMALY": 143.6614, "EPHEMERIS_TYPE": 0, "CLASSIFICATION_TYPE": "U", "NORAD_CAT_ID": 38552, "ELEMENT_SET_NO": 999, "REV_AT_EPOCH": 4909, "BSTAR": 0, "MEAN_MOTION_DOT": 1.6e-07, "MEAN_MOTION_DDOT": 0}, "tle": {"line1": "1 38552U 12035B   25357.04790412  .00000016  00000+0  00000+0 0  9998", "line2": "2 38552   4.2513  61.6947 0000731 264.0711 143.6614  1.00276890 49095"}}, "geometry": {"type": "Point", "coordinates": [-12.816577085707042, -4.110559784841427]}}, {"type": "Feature", "properties": {"norad_id": 38771, "name": "METOP-B", "group": "weather", "lat": 13.007357187644708, "lon": 45.456476404880625, "alt_km": 822.3520738211591, "timestamp": "2025-12-23T16:57:11.987978+00:00", "meta": {"OBJECT_NAME": "METOP-B", "OBJECT_ID": "2012-049A", "EPOCH": "2025-12-23T03:22:34.506624", "MEAN_MOTION": 14.21412228, "ECCENTRICITY": 0.00032276, "INCLINATION": 98.6783, "RA_OF_ASC_NODE": 46.9224, "ARG_OF_PERICENTER": 122.2818, "MEAN_ANOMALY": 237.8672, "EPHEMERIS_TYPE": 0, "CLASSIFICATION_TYPE": "U", "NORAD_CAT_ID": 38771, "ELEMENT_SET_NO": 999, "REV_AT_EPOCH": 68825, "BSTAR": 8.2537768e-05, "MEAN_MOTION_DOT": 1.37e-06, "MEAN_MOTION_DDOT": 0}, "tle": {"line1": "1 38771U 12049A   25357.14067716  .00000137  00000+0  82538-4 0  9996", "line2": "2 38771  98.6783  46.9224 0003227 122.2818 237.8672 14.21412228688255"}}, "geometry": {"type": "Point", "coordinates": [45.456476404880625, 13.007357187644708]}}, {"type": "Feature", "properties": {"norad_id": 39216, "name": "INSAT-3D", "group": "weather", "lat": 0.7899224232861211, "lon": 116.28548548238068, "alt_km": 35789.19701370574, "timestamp": "2025-12-23T16:57:11.987997+00:00", "meta": {"OBJECT_NAME": "INSAT-3D", "OBJECT_ID": "2013-038B", "EPOCH": "2025-12-22T22:20:24.211392", "MEAN_MOTION": 1.00275675, "ECCENTRICITY": 0.00018423, "INCLINATION": 1.4696, "RA_OF_ASC_NODE": 84.8836, "ARG_OF_PERICENTER": 153.7919, "MEAN_ANOMALY": 317.6677, "EPHEMERIS_TYPE": 0, "CLASSIFICATION_TYPE": "U", "NORAD_CAT_ID": 39216, "ELEMENT_SET_NO": 999, "REV_AT_EPOCH": 4531, "BSTAR": 0, "MEAN_MOTION_DOT": -3.18e-06, "MEAN_MOTION_DDOT": 0}, "tle": {"line1": "1 39216U 13038B   25356.93083578 -.00000318  00000+0  00000+0 0  9991", "line2": "2 39216   1.4696  84.8836 0001842 153.7919 317.6677  1.00275675 45319"}}, "geometry": {"type": "Point", "coordinates": [116.28548548238068, 0.7899224232861211]}}, {"type": "Feature", "properties": {"norad_id": 39260, "name": "FENGYUN 3C", "group": "weather", "lat": 34.24490988692582, "lon": -30.97643192332154, "alt_km": 844.4940795813582, "timestamp": "2025-12-23T16:57:11.988009+00:00", "meta": {"OBJECT_NAME": "FENGYUN 3C", "OBJECT_ID": "2013-052A", "EPOCH": "2025-12-23T06:36:44.078688", "MEAN_MOTION": 14.15699265, "ECCENTRICITY": 0.00148615, "INCLINATION": 98.4776, "RA_OF_ASC_NODE": 334.441, "ARG_OF_PERICENTER": 165.5323, "MEAN_ANOMALY": 194.628, "EPHEMERIS_TYPE": 0, "CLASSIFICATION_TYPE": "U", "NORAD_CAT_ID": 39260, "ELEMENT_SET_NO": 999, "REV_AT_EPOCH": 63367, "BSTAR": 6.7026948e-05, "MEAN_MOTION_DOT": 9e-07, "MEAN_MOTION_DDOT": 0}, "tle": {"line1": "1 39260U 13052A   25357.27551017  .00000090  00000+0  67027-4 0  9995", "line2": "2 39260  98.4776 334.4410 0014861 165.5323 194.6280 14.15699265633670"}}, "geometry": {"type": "Point", "coordinates": [-30.97643192332154, 34.24490988692582]}}, {"type": "Feature", "properties": {"norad_id": 40069, "name": "METEOR-M 2", "group": "weather", "lat": -59.63863913199375, "lon": 140.09620282705336, "alt_km": 826.1157373925562, "timestamp": "2025-12-23T16:57:11.988020+00:00", "meta": {"OBJECT_NAME": "METEOR-M 2", "OBJECT_ID": "2014-037A", "EPOCH": "2025-12-23T05:41:16.808640", "MEAN_MOTION": 14.21390126, "ECCENTRICITY": 0.00055128, "INCLINATION": 98.491, "RA_OF_ASC_NODE": 334.4193, "ARG_OF_PERICENTER": 176.5234, "MEAN_ANOMALY": 183.5984, "EPHEMERIS_TYPE": 0, "CLASSIFICATION_TYPE": "U", "NORAD_CAT_ID": 40069, "ELEMENT_SET_NO": 999, "REV_AT_EPOCH": 59432, "BSTAR": 8.1142029e-05, "MEAN_MOTION_DOT": 1.35e-06, "MEAN_MOTION_DDOT": 0}, "tle": {"line1": "1 40069U 14037A   25357.23700010  .00000135  00000+0  81142-4 0  9997", "line2": "2 40069  98.4910 334.4193 0005512 176.5234 183.5984 14.21390126594320"}}, "geometry": {"type": "Point", "coordinates": [140.09620282705336, -59.63863913199375]}}, {"type": "Feature", "properties": {"norad_id": 40267, "name": "HIMAWARI-8", "group": "weather", "lat": -0.00519382937171557, "lon": 127.45269723054408, "alt_km": 35789.49100691913, "timestamp": "2025-12-23T16:57:11.988033+00:00", "meta": {"OBJECT_NAME": "HIMAWARI-8", "OBJECT_ID": "2014-060A", "EPOCH": "2025-12-22T22:23:38.900832", "MEAN_MOTION": 1.00272243, "ECCENTRICITY": 8.188e-05, "INCLINATION": 0.0459, "RA_OF_ASC_NODE": 217.6658, "ARG_OF_PERICENTER": 87.3219, "MEAN_ANOMALY": 263.3209, "EPHEMERIS_TYPE": 0, "CLASSIFICATION_TYPE": "U", "NORAD_CAT_ID": 40267, "ELEMENT_SET_NO": 999, "REV_AT_EPOCH": 4099, "BSTAR": 0, "MEAN_MOTION_DOT": -2.54e-06, "MEAN_MOTION_DDOT": 0}, "tle": {"line1": "1 40267U 14060A   25356.93308913 -.00000254  00000+0  00000+0 0  9997", "line2": "2 40267   0.0459 217.6658 0000818  87.3219 263.3209  1.00272243 40999"}}, "geometry": {"type": "Point", "coordinates": [127.45269723054408, -0.00519382937171557]}}, {"type": "Feature", "properties": {"norad_id": 40367, "name": "FENGYUN 2G", "group": "weather", "lat": 1.0075814112496533, "lon": 85.90014303239661, "alt_km": 35800.257494719954, "timestamp": "2025-12-23T16:57:11.988045+00:00", "meta": {"OBJECT_NAME": "FENGYUN 2G", "OBJECT_ID": "2014-090A", "EPOCH": "2025-12-23T01:37:15.049920", "MEAN_MOTION": 1.00260115, "ECCENTRICITY": 0.00026484, "INCLINATION": 5.1926, "RA_OF_ASC_NODE": 74.9794, "ARG_OF_PERICENTER": 203.6037, "MEAN_ANOMALY": 296.7693, "EPHEMERIS_TYPE": 0, "CLASSIFICATION_TYPE": "U", "NORAD_CAT_ID": 40367, "ELEMENT_SET_NO": 999, "REV_AT_EPOCH": 4023, "BSTAR": 0, "MEAN_MOTION_DOT": -2.79e-06, "MEAN_MOTION_DDOT": 0}, "tle": {"line1": "1 40367U 14090A   25357.06753530 -.00000279  00000+0  00000+0 0  9992", "line2": "2 40367   5.1926  74.9794 0002648 203.6037 296.7693  1.00260115 40233"}}, "geometry": {"type": "Point", "coordinates": [85.90014303239661, 1.0075814112496533]}}, {"type": "Feature", "properties": {"norad_id": 40732, "name": "METEOSAT-11 (MSG-4)", "group": "weather", "lat": -2.6892648952722626, "lon": -4.00531363990521, "alt_km": 35789.35890189936, "timestamp": "2025-12-23T16:57:11.988057+00:00", "meta": {"OBJECT_NAME": "METEOSAT-11 (MSG-4)", "OBJECT_ID": "2015-034A", "EPOCH": "2025-12-23T04:36:57.786336", "MEAN_MOTION": 1.00270765, "ECCENTRICITY": 7.628e-05, "INCLINATION": 2.7625, "RA_OF_ASC_NODE": 71.9731, "ARG_OF_PERICENTER": 137.0032, "MEAN_ANOMALY": 321.4375, "EPHEMERIS_TYPE": 0, "CLASSIFICATION_TYPE": "U", "NORAD_CAT_ID": 40732, "ELEMENT_SET_NO": 999, "REV_AT_EPOCH": 545, "BSTAR": 0, "MEAN_MOTION_DOT": 8.1e-07, "MEAN_MOTION_DDOT": 0}, "tle": {"line1": "1 40732U 15034A   25357.19233549  .00000081  00000+0  00000+0 0  9994", "line2": "2 40732   2.7625  71.9731 0000762 137.0032 321.4375  1.00270765  5456"}}, "geometry": {"type": "Point", "coordinates": [-4.00531363990521, -2.6892648952722626]}}, {"type": "Feature", "properties": {"norad_id": 41105, "name": "ELEKTRO-L 2", "group": "weather", "lat": -6.16723790213226, "lon": -27.70707151947519, "alt_km": 35777.37990940091, "timestamp": "2025-12-23T16:57:11.988070+00:00", "meta": {"OBJECT_NAME": "ELEKTRO-L 2", "OBJECT_ID": "2015-074A", "EPOCH": "2025-12-23T01:04:44.322816", "MEAN_MOTION": 1.00272278, "ECCENTRICITY": 0.00035203, "INCLINATION": 6.25, "RA_OF_ASC_NODE": 72.7058, "ARG_OF_PERICENTER": 208.6905, "MEAN_ANOMALY": 172.1579, "EPHEMERIS_TYPE": 0, "CLASSIFICATION_TYPE": "U", "NORAD_CAT_ID": 41105, "ELEMENT_SET_NO": 999, "REV_AT_EPOCH": 3674, "BSTAR": 0, "MEAN_MOTION_DOT": -9.9e-07, "MEAN_MOTION_DDOT": 0}, "tle": {"line1": "1 41105U 15074A   25357.04495744 -.00000099  00000+0  00000+0 0  9994", "line2": "2 41105   6.2500  72.7058 0003520 208.6905 172.1579  1.00272278 36746"}}, "geometry": {"type": "Point", "coordinates": [-27.70707151947519, -6.16723790213226]}}, {"type": "Feature", "properties": {"norad_id": 41752, "name": "INSAT-3DR", "group": "weather", "lat": -0.03233286927005857, "lon": 60.85954292227254, "alt_km": 35837.75414170664, "timestamp": "2025-12-23T16:57:11.988083+00:00", "meta": {"OBJECT_NAME": "INSAT-3DR", "OBJECT_ID": "2016-054A", "EPOCH": "2025-12-23T03:12:43.406208", "MEAN_MOTION": 1.00271522, "ECCENTRICITY": 0.00142068, "INCLINATION": 0.1164, "RA_OF_ASC_NODE": 86.2341, "ARG_OF_PERICENTER": 185.5355, "MEAN_ANOMALY": 302.3292, "EPHEMERIS_TYPE": 0, "CLASSIFICATION_TYPE": "U", "NORAD_CAT_ID": 41752, "ELEMENT_SET_NO": 999, "REV_AT_EPOCH": 3405, "BSTAR": 0, "MEAN_MOTION_DOT": -5.6e-07, "MEAN_MOTION_DDOT": 0}, "tle": {"line1": "1 41752U 16054A   25357.13383572 -.00000056  00000+0  00000+0 0  9999", "line2": "2 41752   0.1164  86.2341 0014206 185.5355 302.3292  1.00271522 34055"}}, "geometry": {"type": "Point", "coordinates": [60.85954292227254, -0.03233286927005857]}}]}